0 FENGYUN 1C DEB
1 30524U 99025AJN 13281.21150078  .00002828  00000-0  29560-2 0  8351
2 30524 099.3117 175.6193 0271470 351.2274 161.9957 13.61130669332555
0 FENGYUN 1C DEB
1 30524U 99025AJN 13283.39751799  .00003485  00000-0  36331-2 0  8364
2 30524 099.3120 177.7055 0271257 345.6840 073.6260 13.61147856332853
0 FENGYUN 1C DEB
1 30524U 99025AJN 13285.67464434  .00002984  00000-0  31175-2 0  8379
2 30524 099.3128 179.8796 0271132 339.8776 071.8557 13.61160453333163
0 FENGYUN 1C DEB
1 30524U 99025AJN 13288.91029057  .00004455  00000-0  46332-2 0  8384
2 30524 099.3131 182.9682 0270753 331.6973 087.1125 13.61184240333603
0 FENGYUN 1C DEB
1 30524U 99025AJN 13290.96933169  .00003663  00000-0  38198-2 0  8392
2 30524 099.3128 184.9334 0270373 326.5289 096.8897 13.61196858333887
0 FENGYUN 1C DEB
1 30524U 99025AJN 13294.64340962  .00004121  00000-0  42937-2 0  8402
2 30524 099.3109 188.4398 0269896 317.1458 101.1418 13.61222068334385
